{"fetched_at":"2026-03-29T16:36:15Z","count":15609,"tles":[{"name":"STARLINK-6233","line1":"1 57229U 23094M   26087.90187808  .00000418  00000+0  25259-4 0  9996","line2":"2 57229  43.0018 282.2233 0001299 269.9993  90.0709 15.26744982150057","category":"Starlink"}]}